QIANFAN-49              
1 62250U 24232P   25226.55895618  .00000046  00000+0  51847-4 0  9990
2 62250  88.9932  53.3756 0014251 174.6491 185.4815 13.50957008 51613
QIANFAN-50              
1 62251U 24232Q   25226.50974066  .00000041  00000+0  44483-4 0  9994
2 62251  88.9937  53.3821 0015840 176.9515 183.1735 13.50963617 51630
QIANFAN-51              
1 62252U 24232R   25226.56734603  .00000031  00000+0  29414-4 0  9998
2 62252  88.9931  53.3776 0013228 179.1200 180.9976 13.50959210 51634
QIANFAN-52              
1 62253U 24232S   25226.52205948  .00000053  00000+0  64102-4 0  9997
2 62253  88.9927  53.2603 0015477 172.6586 187.4795 13.50960542 51711
QIANFAN-53              
1 62254U 24232T   25226.57559404  .00000031  00000+0  28993-4 0  9996
2 62254  88.9935  53.3505 0014333 173.0182 187.1171 13.50964670 51687
QIANFAN-54              
1 62255U 24232U   25226.46855784  .00000036  00000+0  37852-4 0  9994
2 62255  88.9925  53.0502 0001620 160.2460 199.8754 13.50952774 83171
QIANFAN-55              
1 62785U 25016A   25226.56853842  .00000113  00000+0  15587-3 0  9993
2 62785  88.9832 115.6125 0017252 342.8272  17.2294 13.50966302 30962
QIANFAN-56              
1 62786U 25016B   25226.58507578  .00000112  00000+0  15566-3 0  9994
2 62786  88.9805 115.4799 0016005 345.7886  14.2813 13.50958025 31010
